[{"OBJECT_NAME":"AETHER-9","OBJECT_ID":"2026-004T","EPOCH":"2026-03-09T23:31:56.232480","MEAN_MOTION":14.87919538,"ECCENTRICITY":0.00064611,"INCLINATION":97.8002,"RA_OF_ASC_NODE":69.182,"ARG_OF_PERICENTER":98.1292,"MEAN_ANOMALY":262.0657,"EPHEMERIS_TYPE":0,"CLASSIFICATION_TYPE":"U","NORAD_CAT_ID":67380,"ELEMENT_SET_NO":999,"REV_AT_EPOCH":853,"BSTAR":0.00014996524,"MEAN_MOTION_DOT":1.32e-5,"MEAN_MOTION_DDOT":0},{"OBJECT_NAME":"FENGYUN 1C DEB","OBJECT_ID":"1999-025NM","EPOCH":"2026-03-09T00:56:59.268768","MEAN_MOTION":14.46584905,"ECCENTRICITY":0.01880259,"INCLINATION":98.2435,"RA_OF_ASC_NODE":97.8884,"ARG_OF_PERICENTER":305.005,"MEAN_ANOMALY":129.4557,"EPHEMERIS_TYPE":0,"CLASSIFICATION_TYPE":"U","NORAD_CAT_ID":30036,"ELEMENT_SET_NO":999,"REV_AT_EPOCH":421,"BSTAR":0.00060523095,"MEAN_MOTION_DOT":2.667e-5,"MEAN_MOTION_DDOT":0}]
